NORAD_CAT_ID,OBJECT_NAME,OBJECT_TYPE,EPOCH,MEAN_MOTION,ECCENTRICITY,INCLINATION,RA_OF_ASC_NODE,ARG_OF_PERICENTER,MEAN_ANOMALY,BSTAR,MEAN_MOTION_DOT,MEAN_MOTION_DDOT,TLE_LINE0,TLE_LINE1,TLE_LINE2,SEMIMAJOR_AXIS,PERIOD,APOGEE,PERIGEE,DECAYED
53839.0,STARLINK-4784,PAYLOAD,2023-04-28 22:16:16,15.08839644,0.0001264,53.217,308.9751,78.1807,281.9327,-4.4903e-06,-3.59e-06,0.0,0 STARLINK-4784,1 53839U 22114X   23118.92797002 -.00000359  00000-0 -44903-5 0  9993,2 53839  53.2170 308.9751 0001264  78.1807 281.9327 15.08839644 34552,6917.881,95.438,540.621,538.872,0.0
53839.0,STARLINK-4784,PAYLOAD,2023-04-29 12:34:44,15.0883922,0.0001146,53.2168,306.2993,72.1816,287.9301,-6.3605e-05,-1.3e-05,0.0,0 STARLINK-4784,1 53839U 22114X   23119.52413078 -.00001300  00000-0 -63605-4 0  9994,2 53839  53.2168 306.2993 0001146  72.1816 287.9301 15.08839220 35189,6917.883,95.438,540.541,538.955,0.0
53839.0,STARLINK-4784,PAYLOAD,2023-04-29 22:07:03,15.08848125,0.0001234,53.2166,304.5145,79.8061,280.307,-8.0853e-05,-1.575e-05,0.0,0 STARLINK-4784,1 53839U 22114X   23119.92156457 -.00001575  00000-0 -80853-4 0  9991,2 53839  53.2166 304.5145 0001234  79.8061 280.3070 15.08848125 34702,6917.856,95.437,540.574,538.867,0.0
53839.0,STARLINK-4784,PAYLOAD,2023-04-30 12:25:31,15.0881441,6.46e-05,53.2169,301.8391,78.0333,282.0731,0.00024484,3.608e-05,0.0,0 STARLINK-4784,1 53839U 22114X   23120.51773051  .00003608  00000-0  24484-3 0  9997,2 53839  53.2169 301.8391 0000646  78.0333 282.0731 15.08814410 35330,6917.959,95.439,540.271,539.377,0.0
53839.0,STARLINK-4784,PAYLOAD,2023-04-30 15:36:18,15.08834232,0.000132,53.2166,301.2442,79.887,280.2271,1.5989e-05,-3.3e-07,0.0,0 STARLINK-4784,1 53839U 22114X   23120.65020938 -.00000033  00000-0  15989-4 0  9992,2 53839  53.2166 301.2442 0001320  79.8870 280.2271 15.08834232 34818,6917.898,95.438,540.676,538.85,0.0
53839.0,STARLINK-4784,PAYLOAD,2023-04-30 21:57:50,15.08841295,0.0001228,53.2172,300.0545,82.5982,277.515,3.0174e-05,1.92e-06,0.0,0 STARLINK-4784,1 53839U 22114X   23120.91516411  .00000192  00000-0  30174-4 0  9995,2 53839  53.2172 300.0545 0001228  82.5982 277.5150 15.08841295 34854,6917.876,95.437,540.591,538.892,0.0
53839.0,STARLINK-4784,PAYLOAD,2023-05-01 15:27:05,15.08830251,0.0001281,53.2174,296.7829,89.074,271.0399,-5.399e-05,-1.147e-05,0.0,0 STARLINK-4784,1 53839U 22114X   23121.64381598 -.00001147  00000-0 -53990-4 0  9996,2 53839  53.2174 296.7829 0001281  89.0740 271.0399 15.08830251 34961,6917.91,95.438,540.661,538.889,0.0
53839.0,STARLINK-4784,PAYLOAD,2023-05-01 21:48:37,15.0883897,0.0001213,53.2173,295.5928,91.0587,269.0544,-1.9576e-05,-5.99e-06,0.0,0 STARLINK-4784,1 53839U 22114X   23121.90876981 -.00000599  00000-0 -19576-4 0  9992,2 53839  53.2173 295.5928 0001213  91.0587 269.0544 15.08838970 35005,6917.884,95.438,540.588,538.909,0.0
53839.0,STARLINK-4784,PAYLOAD,2023-05-02 12:07:06,15.08837032,0.0001266,53.2176,292.9158,108.121,251.992,-1.3617e-05,-5.05e-06,0.0,0 STARLINK-4784,1 53839U 22114X   23122.50493135 -.00000505  00000-0 -13617-4 0  9992,2 53839  53.2176 292.9158 0001266 108.1210 251.9920 15.08837032 35630,6917.889,95.438,540.63,538.879,0.0
53839.0,STARLINK-4784,PAYLOAD,2023-05-02 16:53:15,15.08840229,0.0001178,53.2172,292.0239,100.7812,259.3312,1.1593e-05,-1.03e-06,0.0,0 STARLINK-4784,1 53839U 22114X   23122.70364855 -.00000103  00000-0  11593-4 0  9994,2 53839  53.2172 292.0239 0001178 100.7812 259.3312 15.08840229 35667,6917.88,95.438,540.56,538.93,0.0
53839.0,STARLINK-4784,PAYLOAD,2023-05-03 04:00:57,15.08840658,0.0001061,53.2163,289.9413,76.6588,283.4522,-1.6129e-05,-5.44e-06,0.0,0 STARLINK-4784,1 53839U 22114X   23123.16732857 -.00000544  00000-0 -16129-4 0  9996,2 53839  53.2163 289.9413 0001061  76.6588 283.4522 15.08840658 35193,6917.878,95.438,540.477,539.009,0.0
53839.0,STARLINK-4784,PAYLOAD,2023-05-03 10:22:30,15.08832543,0.0001613,53.2164,288.7528,79.5644,280.553,2.6657e-05,1.36e-06,0.0,0 STARLINK-4784,1 53839U 22114X   23123.43229538  .00000136  00000-0  26657-4 0  9995,2 53839  53.2164 288.7528 0001613  79.5644 280.5530 15.08832543 35771,6917.903,95.438,540.884,538.652,0.0
53839.0,STARLINK-4784,PAYLOAD,2023-05-03 19:54:49,15.08835774,0.0001139,53.2164,286.9701,80.8792,279.2329,-1.9916e-05,-6.05e-06,0.0,0 STARLINK-4784,1 53839U 22114X   23123.82973585 -.00000605  00000-0 -19916-4 0  9999,2 53839  53.2164 286.9701 0001139  80.8792 279.2329 15.08835774 35293,6917.893,95.438,540.546,538.97,0.0
53839.0,STARLINK-4784,PAYLOAD,2023-05-04 10:13:17,15.08837065,0.0001091,53.2164,284.294,85.9035,274.2082,1.7467e-05,-1e-07,0.0,0 STARLINK-4784,1 53839U 22114X   23124.42589424 -.00000010  00000-0  17467-4 0  9999,2 53839  53.2164 284.2940 0001091  85.9035 274.2082 15.08837065 35928,6917.889,95.438,540.509,539.0,0.0
53839.0,STARLINK-4784,PAYLOAD,2023-05-04 19:45:35,15.08846138,0.00011,53.2161,282.5094,82.8554,277.2564,5.6853e-05,6.17e-06,0.0,0 STARLINK-4784,1 53839U 22114X   23124.82332679  .00000617  00000-0  56853-4 0  9995,2 53839  53.2161 282.5094 0001100  82.8554 277.2564 15.08846138 35445,6917.862,95.437,540.488,538.966,0.0
53839.0,STARLINK-4784,PAYLOAD,2023-05-05 10:04:04,15.08830392,0.0001156,53.2157,279.8348,78.0902,282.0219,4.2828e-07,-2.81e-06,0.0,0 STARLINK-4784,1 53839U 22114X   23125.41949945 -.00000281  00000-0  42828-6 0  9998,2 53839  53.2157 279.8348 0001156  78.0902 282.0219 15.08830392 35532,6917.91,95.438,540.574,538.975,0.0
53839.0,STARLINK-4784,PAYLOAD,2023-05-05 18:01:00,15.08833221,0.0001175,53.2161,278.3452,84.414,275.6986,-1.3107e-05,-4.96e-06,0.0,0 STARLINK-4784,1 53839U 22114X   23125.75070035 -.00000496  00000-0 -13107-4 0  9995,2 53839  53.2161 278.3452 0001175  84.4140 275.6986 15.08833221 36122,6917.901,95.438,540.579,538.953,0.0
53839.0,STARLINK-4784,PAYLOAD,2023-05-06 03:33:19,15.08838311,0.0001162,53.2158,276.562,83.0823,277.0301,1.9405e-05,2.1e-07,0.0,0 STARLINK-4784,1 53839U 22114X   23126.14813674  .00000021  00000-0  19405-4 0  9992,2 53839  53.2158 276.5620 0001162  83.0823 277.0301 15.08838311 35642,6917.886,95.438,540.554,538.947,0.0
53839.0,STARLINK-4784,PAYLOAD,2023-05-06 16:16:23,15.08851291,0.0001174,53.2155,274.1827,83.0248,277.0878,0.00010196,1.336e-05,0.0,0 STARLINK-4784,1 53839U 22114X   23126.67804413  .00001336  00000-0  10196-3 0  9998,2 53839  53.2155 274.1827 0001174  83.0248 277.0878 15.08851291 36266,6917.846,95.437,540.523,538.899,0.0
53839.0,STARLINK-4784,PAYLOAD,2023-05-07 03:24:05,15.08850293,0.0001068,53.2154,272.1011,90.2916,269.8198,-5.7029e-06,-3.79e-06,0.0,0 STARLINK-4784,1 53839U 22114X   23127.14172480 -.00000379  00000-0 -57029-5 0  9999,2 53839  53.2154 272.1011 0001068  90.2916 269.8198 15.08850293 35794,6917.849,95.437,540.453,538.975,0.0
53839.0,STARLINK-4784,PAYLOAD,2023-05-07 12:56:24,15.08834086,0.0001541,53.2157,270.3154,111.157,248.9587,3.8616e-05,3.27e-06,0.0,0 STARLINK-4784,1 53839U 22114X   23127.53917489  .00000327  00000-0  38616-4 0  9999,2 53839  53.2157 270.3154 0001541 111.1570 248.9587 15.08834086 35859,6917.898,95.438,540.83,538.697,0.0
53839.0,STARLINK-4784,PAYLOAD,2023-05-07 16:07:11,15.08826719,0.000106,53.216,269.7214,99.0777,261.0335,-6.5142e-05,-1.324e-05,0.0,0 STARLINK-4784,1 53839U 22114X   23127.67166332 -.00001324  00000-0 -65142-4 0  9991,2 53839  53.2160 269.7214 0001060  99.0777 261.0335 15.08826719 35874,6917.921,95.438,540.519,539.053,0.0
53839.0,STARLINK-4784,PAYLOAD,2023-05-08 12:47:11,15.08840631,0.0001348,53.2159,265.8536,115.5148,244.5984,-8.7426e-05,-1.679e-05,0.0,0 STARLINK-4784,1 53839U 22114X   23128.53277668 -.00001679  00000-0 -87426-4 0  9994,2 53839  53.2159 265.8536 0001348 115.5148 244.5984 15.08840631 36002,6917.878,95.438,540.676,538.811,0.0
53839.0,STARLINK-4784,PAYLOAD,2023-05-08 15:57:57,15.08853108,0.0001031,53.2151,265.2627,88.8258,271.2853,5.3409e-05,5.63e-06,0.0,0 STARLINK-4784,1 53839U 22114X   23128.66524543  .00000563  00000-0  53409-4 0  9998,2 53839  53.2151 265.2627 0001031  88.8258 271.2853 15.08853108 36029,6917.84,95.437,540.419,538.992,0.0
53839.0,STARLINK-4784,PAYLOAD,2023-05-09 14:13:22,15.08832769,9.64e-05,53.2163,261.0952,109.7473,250.3623,4.1001e-05,3.65e-06,0.0,0 STARLINK-4784,1 53839U 22114X   23129.59261643  .00000365  00000-0  41001-4 0  9995,2 53839  53.2163 261.0952 0000964 109.7473 250.3623 15.08832769 36701,6917.902,95.438,540.434,539.101,0.0
53839.0,STARLINK-4784,PAYLOAD,2023-05-10 12:28:46,15.08838268,9.12e-05,53.2167,256.9354,78.8919,281.2176,-0.00014145,-2.538e-05,0.0,0 STARLINK-4784,1 53839U 22114X   23130.51998351 -.00002538  00000-0 -14145-3 0  9996,2 53839  53.2167 256.9354 0000912  78.8919 281.2176 15.08838268 36849,6917.886,95.438,540.382,539.12,0.0
53839.0,STARLINK-4784,PAYLOAD,2023-05-10 17:14:55,15.08840183,9.65e-05,53.2167,256.0434,81.3851,278.725,-0.0001151,-2.119e-05,0.0,0 STARLINK-4784,1 53839U 22114X   23130.71870228 -.00002119  00000-0 -11510-3 0  9998,2 53839  53.2167 256.0434 0000965  81.3851 278.7250 15.08840183 36338,6917.88,95.438,540.412,539.077,0.0
53839.0,STARLINK-4784,PAYLOAD,2023-05-11 01:11:51,15.08840712,8.34e-05,53.2161,254.556,82.4858,277.6229,-5.9819e-05,-1.24e-05,0.0,0 STARLINK-4784,1 53839U 22114X   23131.04989803 -.00001240  00000-0 -59819-4 0  9994,2 53839  53.2161 254.5560 0000834  82.4858 277.6229 15.08840712 36926,6917.878,95.438,540.32,539.166,0.0
53839.0,STARLINK-4784,PAYLOAD,2023-05-11 13:54:56,15.08841059,0.0001001,53.217,252.1779,84.3917,275.719,-6.5715e-05,-1.333e-05,0.0,0 STARLINK-4784,1 53839U 22114X   23131.57982225 -.00001333  00000-0 -65715-4 0  9998,2 53839  53.2170 252.1779 0001001  84.3917 275.7190 15.08841059 37007,6917.877,95.437,540.435,539.05,0.0
53839.0,STARLINK-4784,PAYLOAD,2023-05-12 01:02:38,15.08843739,0.0001127,53.2173,250.098,77.3363,282.7755,-4.9879e-05,-1.082e-05,0.0,0 STARLINK-4784,1 53839U 22114X   23132.04349986 -.00001082  00000-0 -49879-4 0  9996,2 53839  53.2173 250.0980 0001127  77.3363 282.7755 15.08843739 36536,6917.869,95.437,540.514,538.954,0.0
